OBJECT_NAME,OBJECT_ID,EPOCH,MEAN_MOTION,ECCENTRICITY,INCLINATION,RA_OF_ASC_NODE,ARG_OF_PERICENTER,MEAN_ANOMALY,EPHEMERIS_TYPE,CLASSIFICATION_TYPE,NORAD_CAT_ID,ELEMENT_SET_NO,REV_AT_EPOCH,BSTAR,MEAN_MOTION_DOT,MEAN_MOTION_DDOT
BEIDOU-3 G1,2018-085A,2026-07-13T03:57:38.691360,1.00272580,.0008051,2.9306,96.6748,355.9349,57.8024,0,U,43683,999,2832,0,-.114E-5,0
GSAT-29,2018-089A,2026-07-13T03:27:39.508128,1.00275165,.000294,0.0572,246.2899,198.3005,313.4545,0,U,43698,999,2804,0,.82E-6,0
ES'HAIL 2,2018-090A,2026-07-13T03:19:17.810112,1.00269840,.0002215,0.0040,120.2823,40.4145,205.9303,0,U,43700,999,2793,0,.142E-5,0
GEO-KOMPSAT-2A,2018-100A,2026-07-12T22:40:30.306144,1.00270807,.000193,0.0260,112.9792,349.0200,297.2218,0,U,43823,999,2788,0,-.345E-5,0
GSAT-11,2018-100B,2026-07-13T04:34:51.667392,1.00270887,.0007626,0.0570,258.2044,199.2397,336.3479,0,U,43824,999,2773,0,-.79E-6,0
GSAT-7A,2018-105A,2026-07-13T03:29:46.803840,1.00270481,.0001619,0.0794,91.7426,18.6510,295.8261,0,U,43864,999,2770,0,.25E-6,0
COSMOS 2533,2018-107A,2026-07-13T05:14:29.717664,1.00270458,.0001031,0.0419,118.3589,127.4046,193.9384,0,U,43867,999,2770,0,-.4E-6,0
TJS-3,2018-110A,2026-07-12T16:55:22.507104,1.00272312,.00025,2.6080,80.1842,89.7413,162.7272,0,U,43874,999,2767,0,-.219E-5,0
ZHONGXING-2D,2019-001A,2026-07-13T00:23:42.996768,1.00271791,.0000403,0.0570,239.3140,88.5507,98.9444,0,U,43920,999,5433,0,-.338E-5,0
HELLAS-SAT 4 & SGS-1,2019-007A,2026-07-13T03:23:02.450112,1.00269619,.0005592,0.0675,125.0302,21.4634,234.2940,0,U,44034,999,2762,0,.15E-5,0
GSAT-31,2019-007B,2026-07-13T03:25:32.212416,1.00269805,.0000774,0.0170,75.9263,159.7805,154.5751,0,U,44035,999,2722,0,.123E-5,0
NUSANTARA SATU,2019-009A,2026-07-12T22:45:14.850720,1.00270499,.0004518,0.0326,126.1580,2.3259,289.6650,0,U,44048,999,2702,0,-.236E-5,0
ZHONGXING-6C,2019-012A,2026-07-13T00:23:50.485056,1.00271827,.0014531,0.0854,73.7372,339.6499,13.9288,0,U,44067,999,2699,0,-.337E-5,0
WGS 10 (USA 291),2019-014A,2026-07-12T21:23:38.884992,1.00271320,.0000272,0.0179,43.4606,228.7041,39.8268,0,U,44071,999,2687,0,.46E-6,0
TIANLIAN 2-01,2019-017A,2026-07-13T04:34:51.667392,1.00270804,.0001434,0.6046,83.0609,81.2909,272.4540,0,U,44076,999,2690,0,-.109E-5,0
ARABSAT-6A,2019-021A,2026-07-12T22:12:39.940992,1.00277360,.0001387,0.0475,19.2498,251.0676,24.2111,0,U,44186,999,2641,0,.153E-5,0
BEIDOU-3 IGSO-1,2019-023A,2026-07-12T11:43:39.425664,1.00283752,.00256738,58.7307,37.3896,224.1023,323.8830,0,U,44204,999,746,0,-.205E-5,0
BEIDOU-2 G8,2019-027A,2026-07-13T03:53:07.067904,1.00272288,.0009748,1.7204,74.4975,282.3365,137.0092,0,U,44231,999,2634,0,-.251E-5,0
YAMAL 601,2019-031A,2026-07-13T00:00:37.710144,1.00270170,.0002229,0.0144,72.9030,33.6877,233.4494,0,U,44307,999,2618,0,.119E-5,0
AT&T T-16,2019-034A,2026-07-13T02:59:34.289952,1.00269437,.0000687,0.0150,52.5971,267.7575,274.6882,0,U,44333,999,2589,0,-.117E-5,0
EUTELSAT 7C,2019-034B,2026-07-13T01:31:12.925056,1.00271209,.0003166,0.0771,181.5598,280.9023,218.3036,0,U,44334,999,709,0,.47E-6,0
BEIDOU-3 IGSO-2,2019-035A,2026-07-12T19:12:35.206272,1.00258293,.0039625,55.2503,158.6383,216.5497,322.2986,0,U,44337,999,2592,0,-.121E-5,0
COSMOS 2539,2019-048A,2026-07-12T23:50:01.227264,1.00271104,.0000339,0.0366,99.6513,20.7864,179.9317,0,U,44457,999,2548,0,.79E-6,0
EDRS-C,2019-049A,2026-07-12T22:44:37.411008,1.00271606,.0000858,0.0140,97.1498,31.5851,285.7472,0,U,44475,999,2546,0,-.263E-5,0
INTELSAT 39 (IS-39),2019-049B,2026-07-13T03:29:31.828128,1.00269580,.0000945,0.0267,46.5409,281.2397,77.5838,0,U,44476,999,2538,0,0,0
AMOS-17,2019-050A,2026-07-13T03:16:48.047808,1.00272715,.000128,0.0155,7.5135,111.4512,238.2367,0,U,44479,999,2544,0,.107E-5,0
AEHF-5 (USA 292),2019-051A,2026-07-13T01:56:03.045120,1.00274380,.0065006,1.4330,338.2250,357.6803,77.1079,0,U,44481,999,2552,0,-.258E-5,0
EUTELSAT 5 WEST B,2019-067A,2026-07-13T04:15:38.675808,1.00271516,.0002973,0.0626,354.4696,118.9937,236.5006,0,U,44624,999,2469,0,-.44E-6,0
MEV-1,2019-067B,2026-06-16T22:18:40.152960,1.00269616,.00027946,0.8740,268.9828,179.8034,307.2103,0,U,44625,999,6174,0,-.149E-5,0
TJS-4,2019-070A,2026-07-13T03:35:46.231296,1.00269332,.0003157,0.0788,87.0737,320.5470,20.8747,0,U,44637,999,2479,0,-.171E-5,0
TIBA-1,2019-080A,2026-07-13T03:22:02.547264,1.00269696,.0001837,0.0512,10.1204,116.1981,250.6908,0,U,44800,999,2431,0,.154E-5,0
INMARSAT GX5,2019-080B,2026-07-12T22:07:02.980128,1.00272798,.0001959,0.0437,35.4675,73.5798,164.5479,0,U,44801,999,704,0,.74E-6,0
