BEIDOU-3 G1             
1 43683U 18085A   26194.16503115 -.00000114  00000+0  00000+0 0  9995
2 43683   2.9306  96.6748 0008051 355.9349  57.8024  1.00272580 28324
GSAT-29                 
1 43698U 18089A   26194.14420727  .00000082  00000+0  00000+0 0  9993
2 43698   0.0572 246.2899 0002940 198.3005 313.4545  1.00275165 28043
ES'HAIL 2               
1 43700U 18090A   26194.13840058  .00000142  00000+0  00000+0 0  9998
2 43700   0.0040 120.2823 0002215  40.4145 205.9303  1.00269840 27939
GEO-KOMPSAT-2A          
1 43823U 18100A   26193.94479521 -.00000345  00000+0  00000+0 0  9993
2 43823   0.0260 112.9792 0001930 349.0200 297.2218  1.00270807 27883
GSAT-11                 
1 43824U 18100B   26194.19087578 -.00000079  00000+0  00000+0 0  9993
2 43824   0.0570 258.2044 0007626 199.2397 336.3479  1.00270887 27738
GSAT-7A                 
1 43864U 18105A   26194.14568060  .00000025  00000+0  00000+0 0  9997
2 43864   0.0794  91.7426 0001619  18.6510 295.8261  1.00270481 27706
COSMOS 2533             
1 43867U 18107A   26194.21839951 -.00000040  00000+0  00000+0 0  9998
2 43867   0.0419 118.3589 0001031 127.4046 193.9384  1.00270458 27708
TJS-3                   
1 43874U 18110A   26193.70512161 -.00000219  00000+0  00000+0 0  9992
2 43874   2.6080  80.1842 0002500  89.7413 162.7272  1.00272312 27673
ZHONGXING-2D            
1 43920U 19001A   26194.01646987 -.00000338  00000+0  00000+0 0  9995
2 43920   0.0570 239.3140 0000403  88.5507  98.9444  1.00271791 54335
HELLAS-SAT 4 & SGS-1    
1 44034U 19007A   26194.14100058  .00000150  00000+0  00000+0 0  9997
2 44034   0.0675 125.0302 0005592  21.4634 234.2940  1.00269619 27624
GSAT-31                 
1 44035U 19007B   26194.14273394  .00000123  00000+0  00000+0 0  9992
2 44035   0.0170  75.9263 0000774 159.7805 154.5751  1.00269805 27223
NUSANTARA SATU          
1 44048U 19009A   26193.94808855 -.00000236  00000+0  00000+0 0  9997
2 44048   0.0326 126.1580 0004518   2.3259 289.6650  1.00270499 27024
ZHONGXING-6C            
1 44067U 19012A   26194.01655654 -.00000337  00000+0  00000+0 0  9990
2 44067   0.0854  73.7372 0014531 339.6499  13.9288  1.00271827 26991
WGS 10 (USA 291)        
1 44071U 19014A   26193.89142228  .00000046  00000+0  00000+0 0  9996
2 44071   0.0179  43.4606 0000272 228.7041  39.8268  1.00271320 26878
TIANLIAN 2-01           
1 44076U 19017A   26194.19087578 -.00000109  00000+0  00000+0 0  9995
2 44076   0.6046  83.0609 0001434  81.2909 272.4540  1.00270804 26909
ARABSAT-6A              
1 44186U 19021A   26193.92546228  .00000153  00000+0  00000+0 0  9992
2 44186   0.0475  19.2498 0001387 251.0676  24.2111  1.00277360 26410
BEIDOU-3 IGSO-1         
1 44204U 19023A   26193.48865076 -.00000205  00000+0  00000+0 0  9990
2 44204  58.7307  37.3896 0025673 224.1023 323.8830  1.00283752  7461
BEIDOU-2 G8             
1 44231U 19027A   26194.16188736 -.00000251  00000+0  00000+0 0  9992
2 44231   1.7204  74.4975 0009748 282.3365 137.0092  1.00272288 26340
YAMAL 601               
1 44307U 19031A   26194.00043646  .00000119  00000+0  00000+0 0  9996
2 44307   0.0144  72.9030 0002229  33.6877 233.4494  1.00270170 26183
AT&T T-16               
1 44333U 19034A   26194.12470243 -.00000117  00000+0  00000+0 0  9997
2 44333   0.0150  52.5971 0000687 267.7575 274.6882  1.00269437 25897
EUTELSAT 7C             
1 44334U 19034B   26194.06334404  .00000047  00000+0  00000+0 0  9990
2 44334   0.0771 181.5598 0003166 280.9023 218.3036  1.00271209  7093
BEIDOU-3 IGSO-2         
1 44337U 19035A   26193.80040748 -.00000121  00000+0  00000+0 0  9994
2 44337  55.2503 158.6383 0039625 216.5497 322.2986  1.00258293 25926
COSMOS 2539             
1 44457U 19048A   26193.99306976  .00000079  00000+0  00000+0 0  9990
2 44457   0.0366  99.6513 0000339  20.7864 179.9317  1.00271104 25488
EDRS-C                  
1 44475U 19049A   26193.94765522 -.00000263  00000+0  00000+0 0  9998
2 44475   0.0140  97.1498 0000858  31.5851 285.7472  1.00271606 25468
INTELSAT 39 (IS-39)     
1 44476U 19049B   26194.14550727  .00000000  00000+0  00000+0 0  9999
2 44476   0.0267  46.5409 0000945 281.2397  77.5838  1.00269580 25387
AMOS-17                 
1 44479U 19050A   26194.13666722  .00000107  00000+0  00000+0 0  9994
2 44479   0.0155   7.5135 0001280 111.4512 238.2367  1.00272715 25449
AEHF-5 (USA 292)        
1 44481U 19051A   26194.08059080 -.00000258  00000+0  00000+0 0  9993
2 44481   1.4330 338.2250 0065006 357.6803  77.1079  1.00274380 25526
EUTELSAT 5 WEST B       
1 44624U 19067A   26194.17753097 -.00000044  00000+0  00000+0 0  9991
2 44624   0.0626 354.4696 0002973 118.9937 236.5006  1.00271516 24698
MEV-1                   
1 44625U 19067B   26167.92963140 -.00000149  00000+0  00000+0 0  9993
2 44625   0.8740 268.9828 0002794 179.8034 307.2103  1.00269616 61744
TJS-4                   
1 44637U 19070A   26194.14984064 -.00000171  00000+0  00000+0 0  9997
2 44637   0.0788  87.0737 0003157 320.5470  20.8747  1.00269332 24794
TIBA-1                  
1 44800U 19080A   26194.14030726  .00000154  00000+0  00000+0 0  9997
2 44800   0.0512  10.1204 0001837 116.1981 250.6908  1.00269696 24319
INMARSAT GX5            
1 44801U 19080B   26193.92156227  .00000074  00000+0  00000+0 0  9999
2 44801   0.0437  35.4675 0001959  73.5798 164.5479  1.00272798  7049
